[{"OBJECT_NAME":"STARLINK-30349","OBJECT_ID":"2023-129R","EPOCH":"2025-09-17T05:42:48.112704","MEAN_MOTION":15.02527539,"ECCENTRICITY":9.479e-5,"INCLINATION":43.0021,"RA_OF_ASC_NODE":342.706,"ARG_OF_PERICENTER":258.1091,"MEAN_ANOMALY":101.9645,"EPHEMERIS_TYPE":0,"CLASSIFICATION_TYPE":"U","NORAD_CAT_ID":57713,"ELEMENT_SET_NO":999,"REV_AT_EPOCH":11442,"BSTAR":7.8693177e-5,"MEAN_MOTION_DOT":8.59e-6,"MEAN_MOTION_DDOT":0},{"OBJECT_NAME":"STARLINK-30341","OBJECT_ID":"2023-129S","EPOCH":"2025-09-19T05:01:04.743552","MEAN_MOTION":15.02537425,"ECCENTRICITY":0.00018642,"INCLINATION":43.0052,"RA_OF_ASC_NODE":331.6951,"ARG_OF_PERICENTER":277.2131,"MEAN_ANOMALY":82.8499,"EPHEMERIS_TYPE":0,"CLASSIFICATION_TYPE":"U","NORAD_CAT_ID":57714,"ELEMENT_SET_NO":999,"REV_AT_EPOCH":11486,"BSTAR":7.0453785e-5,"MEAN_MOTION_DOT":7.48e-6,"MEAN_MOTION_DDOT":0},{"OBJECT_NAME":"STARLINK-30300","OBJECT_ID":"2023-129T","EPOCH":"2025-09-19T05:49:01.689888","MEAN_MOTION":15.02535111,"ECCENTRICITY":0.00013962,"INCLINATION":43.0024,"RA_OF_ASC_NODE":331.9432,"ARG_OF_PERICENTER":269.6317,"MEAN_ANOMALY":90.4365,"EPHEMERIS_TYPE":0,"CLASSIFICATION_TYPE":"U","NORAD_CAT_ID":57715,"ELEMENT_SET_NO":999,"REV_AT_EPOCH":11486,"BSTAR":1.35586e-5,"MEAN_MOTION_DOT":-2.0e-7,"MEAN_MOTION_DDOT":0},{"OBJECT_NAME":"STARLINK-30281","OBJECT_ID":"2023-129U","EPOCH":"2025-09-19T05:20:15.683136","MEAN_MOTION":15.02536563,"ECCENTRICITY":0.00013709,"INCLINATION":43.0056,"RA_OF_ASC_NODE":331.7938,"ARG_OF_PERICENTER":270.1595,"MEAN_ANOMALY":89.9091,"EPHEMERIS_TYPE":0,"CLASSIFICATION_TYPE":"U","NORAD_CAT_ID":57716,"ELEMENT_SET_NO":999,"REV_AT_EPOCH":11472,"BSTAR":3.2173561e-5,"MEAN_MOTION_DOT":2.31e-6,"MEAN_MOTION_DDOT":0},{"OBJECT_NAME":"STARLINK-30325","OBJECT_ID":"2023-129V","EPOCH":"2025-09-19T05:39:26.307360","MEAN_MOTION":15.02537078,"ECCENTRICITY":0.00016882,"INCLINATION":43.0042,"RA_OF_ASC_NODE":331.891,"ARG_OF_PERICENTER":261.7995,"MEAN_ANOMALY":98.2656,"EPHEMERIS_TYPE":0,"CLASSIFICATION_TYPE":"U","NORAD_CAT_ID":57717,"ELEMENT_SET_NO":999,"REV_AT_EPOCH":11486,"BSTAR":0.00011029378,"MEAN_MOTION_DOT":1.286e-5,"MEAN_MOTION_DDOT":0},{"OBJECT_NAME":"STARLINK-30338","OBJECT_ID":"2023-129W","EPOCH":"2025-09-19T05:25:03.165312","MEAN_MOTION":15.02541416,"ECCENTRICITY":0.00010939,"INCLINATION":43.0034,"RA_OF_ASC_NODE":331.8203,"ARG_OF_PERICENTER":274.0981,"MEAN_ANOMALY":85.9737,"EPHEMERIS_TYPE":0,"CLASSIFICATION_TYPE":"U","NORAD_CAT_ID":57718,"ELEMENT_SET_NO":999,"REV_AT_EPOCH":11486,"BSTAR":8.5258057e-5,"MEAN_MOTION_DOT":9.48e-6,"MEAN_MOTION_DDOT":0},{"OBJECT_NAME":"STARLINK-30334","OBJECT_ID":"2023-129X","EPOCH":"2025-09-18T16:44:01.599936","MEAN_MOTION":15.02536664,"ECCENTRICITY":0.00015139,"INCLINATION":43.0038,"RA_OF_ASC_NODE":334.7352,"ARG_OF_PERICENTER":283.4816,"MEAN_ANOMALY":76.5857,"EPHEMERIS_TYPE":0,"CLASSIFICATION_TYPE":"U","NORAD_CAT_ID":57719,"ELEMENT_SET_NO":999,"REV_AT_EPOCH":11464,"BSTAR":3.5507578e-5,"MEAN_MOTION_DOT":2.76e-6,"MEAN_MOTION_DDOT":0},{"OBJECT_NAME":"STARLINK-30375","OBJECT_ID":"2023-131A","EPOCH":"2025-09-18T07:56:25.659456","MEAN_MOTION":15.02552342,"ECCENTRICITY":0.00015033,"INCLINATION":43.0067,"RA_OF_ASC_NODE":15.8454,"ARG_OF_PERICENTER":268.6753,"MEAN_ANOMALY":91.3918,"EPHEMERIS_TYPE":0,"CLASSIFICATION_TYPE":"U","NORAD_CAT_ID":57732,"ELEMENT_SET_NO":999,"REV_AT_EPOCH":11415,"BSTAR":-0.00022867115,"MEAN_MOTION_DOT":-3.293e-5,"MEAN_MOTION_DDOT":0},{"OBJECT_NAME":"STARLINK-30310","OBJECT_ID":"2023-131B","EPOCH":"2025-09-18T09:52:21.179136","MEAN_MOTION":15.02534639,"ECCENTRICITY":0.00015281,"INCLINATION":43.0064,"RA_OF_ASC_NODE":27.5027,"ARG_OF_PERICENTER":265.0301,"MEAN_ANOMALY":95.0367,"EPHEMERIS_TYPE":0,"CLASSIFICATION_TYPE":"U","NORAD_CAT_ID":57733,"ELEMENT_SET_NO":999,"REV_AT_EPOCH":11402,"BSTAR":3.9710973e-5,"MEAN_MOTION_DOT":3.33e-6,"MEAN_MOTION_DDOT":0},{"OBJECT_NAME":"STARLINK-30365","OBJECT_ID":"2023-131C","EPOCH":"2025-09-19T07:29:33.392256","MEAN_MOTION":15.02537284,"ECCENTRICITY":0.00014723,"INCLINATION":43.0067,"RA_OF_ASC_NODE":23.0531,"ARG_OF_PERICENTER":278.0365,"MEAN_ANOMALY":82.031,"EPHEMERIS_TYPE":0,"CLASSIFICATION_TYPE":"U","NORAD_CAT_ID":57734,"ELEMENT_SET_NO":999,"REV_AT_EPOCH":11414,"BSTAR":2.7170915e-5,"MEAN_MOTION_DOT":1.63e-6,"MEAN_MOTION_DDOT":0},{"OBJECT_NAME":"STARLINK-30371","OBJECT_ID":"2023-131D","EPOCH":"2025-09-18T21:21:38.111616","MEAN_MOTION":15.02530869,"ECCENTRICITY":0.00015621,"INCLINATION":43.0046,"RA_OF_ASC_NODE":25.0737,"ARG_OF_PERICENTER":268.0913,"MEAN_ANOMALY":91.9751,"EPHEMERIS_TYPE":0,"CLASSIFICATION_TYPE":"U","NORAD_CAT_ID":57735,"ELEMENT_SET_NO":999,"REV_AT_EPOCH":11408,"BSTAR":6.1753654e-5,"MEAN_MOTION_DOT":6.3e-6,"MEAN_MOTION_DDOT":0},{"OBJECT_NAME":"STARLINK-30352","OBJECT_ID":"2023-131E","EPOCH":"2025-09-17T08:25:29.803296","MEAN_MOTION":15.02536078,"ECCENTRICITY":0.00014238,"INCLINATION":43.0052,"RA_OF_ASC_NODE":33.3099,"ARG_OF_PERICENTER":270.3112,"MEAN_ANOMALY":89.7567,"EPHEMERIS_TYPE":0,"CLASSIFICATION_TYPE":"U","NORAD_CAT_ID":57736,"ELEMENT_SET_NO":999,"REV_AT_EPOCH":11385,"BSTAR":3.00057e-7,"MEAN_MOTION_DOT":-2.0e-6,"MEAN_MOTION_DDOT":0},{"OBJECT_NAME":"STARLINK-30344","OBJECT_ID":"2023-131F","EPOCH":"2025-09-17T10:33:12.734208","MEAN_MOTION":15.02503559,"ECCENTRICITY":0.00016194,"INCLINATION":43.0045,"RA_OF_ASC_NODE":33.1209,"ARG_OF_PERICENTER":264.506,"MEAN_ANOMALY":95.5598,"EPHEMERIS_TYPE":0,"CLASSIFICATION_TYPE":"U","NORAD_CAT_ID":57737,"ELEMENT_SET_NO":999,"REV_AT_EPOCH":11386,"BSTAR":0.00030049191,"MEAN_MOTION_DOT":3.854e-5,"MEAN_MOTION_DDOT":0},{"OBJECT_NAME":"STARLINK-30351","OBJECT_ID":"2023-131G","EPOCH":"2025-09-18T09:23:45.422880","MEAN_MOTION":15.02538692,"ECCENTRICITY":9.921e-5,"INCLINATION":43.0053,"RA_OF_ASC_NODE":28.2185,"ARG_OF_PERICENTER":260.3764,"MEAN_ANOMALY":99.6967,"EPHEMERIS_TYPE":0,"CLASSIFICATION_TYPE":"U","NORAD_CAT_ID":57738,"ELEMENT_SET_NO":999,"REV_AT_EPOCH":11400,"BSTAR":6.2139886e-5,"MEAN_MOTION_DOT":6.36e-6,"MEAN_MOTION_DDOT":0},{"OBJECT_NAME":"STARLINK-30242","OBJECT_ID":"2023-131H","EPOCH":"2025-09-19T06:28:11.506368","MEAN_MOTION":15.02533693,"ECCENTRICITY":0.00018516,"INCLINATION":43.0026,"RA_OF_ASC_NODE":357.876,"ARG_OF_PERICENTER":286.5948,"MEAN_ANOMALY":73.4691,"EPHEMERIS_TYPE":0,"CLASSIFICATION_TYPE":"U","NORAD_CAT_ID":57739,"ELEMENT_SET_NO":999,"REV_AT_EPOCH":11443,"BSTAR":4.0618884e-5,"MEAN_MOTION_DOT":3.45e-6,"MEAN_MOTION_DDOT":0},{"OBJECT_NAME":"STARLINK-30331","OBJECT_ID":"2023-131J","EPOCH":"2025-09-19T07:19:22.225440","MEAN_MOTION":15.27579904,"ECCENTRICITY":0.00010368,"INCLINATION":43.0047,"RA_OF_ASC_NODE":347.2851,"ARG_OF_PERICENTER":239.1431,"MEAN_ANOMALY":120.9319,"EPHEMERIS_TYPE":0,"CLASSIFICATION_TYPE":"U","NORAD_CAT_ID":57740,"ELEMENT_SET_NO":999,"REV_AT_EPOCH":11456,"BSTAR":2.855441e-6,"MEAN_MOTION_DOT":-1.83e-6,"MEAN_MOTION_DDOT":0},{"OBJECT_NAME":"STARLINK-30364","OBJECT_ID":"2023-131K","EPOCH":"2025-09-17T20:13:58.230912","MEAN_MOTION":15.02535812,"ECCENTRICITY":0.00012021,"INCLINATION":43.0047,"RA_OF_ASC_NODE":30.9828,"ARG_OF_PERICENTER":263.4926,"MEAN_ANOMALY":96.578,"EPHEMERIS_TYPE":0,"CLASSIFICATION_TYPE":"U","NORAD_CAT_ID":57741,"ELEMENT_SET_NO":999,"REV_AT_EPOCH":11392,"BSTAR":0.00018753795,"MEAN_MOTION_DOT":2.331e-5,"MEAN_MOTION_DDOT":0},{"OBJECT_NAME":"STARLINK-30308","OBJECT_ID":"2023-131L","EPOCH":"2025-09-18T09:18:57.573504","MEAN_MOTION":15.02532546,"ECCENTRICITY":0.00016877,"INCLINATION":43.004,"RA_OF_ASC_NODE":28.1949,"ARG_OF_PERICENTER":280.9788,"MEAN_ANOMALY":79.0865,"EPHEMERIS_TYPE":0,"CLASSIFICATION_TYPE":"U","NORAD_CAT_ID":57742,"ELEMENT_SET_NO":999,"REV_AT_EPOCH":11401,"BSTAR":6.6155458e-5,"MEAN_MOTION_DOT":6.9e-6,"MEAN_MOTION_DDOT":0},{"OBJECT_NAME":"STARLINK-30361","OBJECT_ID":"2023-131M","EPOCH":"2025-09-17T10:34:47.532288","MEAN_MOTION":15.02527732,"ECCENTRICITY":0.00013589,"INCLINATION":43.0038,"RA_OF_ASC_NODE":33.1225,"ARG_OF_PERICENTER":269.9929,"MEAN_ANOMALY":90.0757,"EPHEMERIS_TYPE":0,"CLASSIFICATION_TYPE":"U","NORAD_CAT_ID":57743,"ELEMENT_SET_NO":999,"REV_AT_EPOCH":11386,"BSTAR":0.00010035945,"MEAN_MOTION_DOT":1.152e-5,"MEAN_MOTION_DDOT":0},{"OBJECT_NAME":"STARLINK-30363","OBJECT_ID":"2023-131N","EPOCH":"2025-09-18T07:51:38.234304","MEAN_MOTION":15.02548291,"ECCENTRICITY":0.00013798,"INCLINATION":43.0056,"RA_OF_ASC_NODE":15.8202,"ARG_OF_PERICENTER":268.1454,"MEAN_ANOMALY":91.9231,"EPHEMERIS_TYPE":0,"CLASSIFICATION_TYPE":"U","NORAD_CAT_ID":57744,"ELEMENT_SET_NO":999,"REV_AT_EPOCH":11414,"BSTAR":-0.00021891447,"MEAN_MOTION_DOT":-3.161e-5,"MEAN_MOTION_DDOT":0},{"OBJECT_NAME":"STARLINK-30362","OBJECT_ID":"2023-131P","EPOCH":"2025-09-18T08:50:11.584896","MEAN_MOTION":15.02532689,"ECCENTRICITY":0.00014576,"INCLINATION":43.0051,"RA_OF_ASC_NODE":28.0416,"ARG_OF_PERICENTER":275.8077,"MEAN_ANOMALY":84.26,"EPHEMERIS_TYPE":0,"CLASSIFICATION_TYPE":"U","NORAD_CAT_ID":57745,"ELEMENT_SET_NO":999,"REV_AT_EPOCH":11400,"BSTAR":6.878645e-6,"MEAN_MOTION_DOT":-1.11e-6,"MEAN_MOTION_DDOT":0},{"OBJECT_NAME":"STARLINK-30350","OBJECT_ID":"2023-131Q","EPOCH":"2025-09-18T09:33:20.298240","MEAN_MOTION":15.02533516,"ECCENTRICITY":0.00012684,"INCLINATION":43.0038,"RA_OF_ASC_NODE":28.248,"ARG_OF_PERICENTER":272.5507,"MEAN_ANOMALY":87.519,"EPHEMERIS_TYPE":0,"CLASSIFICATION_TYPE":"U","NORAD_CAT_ID":57746,"ELEMENT_SET_NO":999,"REV_AT_EPOCH":11400,"BSTAR":5.5510815e-5,"MEAN_MOTION_DOT":5.46e-6,"MEAN_MOTION_DDOT":0},{"OBJECT_NAME":"STARLINK-30307","OBJECT_ID":"2023-131R","EPOCH":"2025-09-18T08:51:47.333376","MEAN_MOTION":15.02533582,"ECCENTRICITY":0.00014407,"INCLINATION":43.0058,"RA_OF_ASC_NODE":28.0501,"ARG_OF_PERICENTER":270.8907,"MEAN_ANOMALY":89.177,"EPHEMERIS_TYPE":0,"CLASSIFICATION_TYPE":"U","NORAD_CAT_ID":57747,"ELEMENT_SET_NO":999,"REV_AT_EPOCH":11400,"BSTAR":-6.300859e-6,"MEAN_MOTION_DOT":-2.89e-6,"MEAN_MOTION_DDOT":0}]
